{
"type": "FeatureCollection",
"name": "study_area_buffer",
"crs": { "type": "name", "properties": { "name": "urn:ogc:def:crs:OGC:1.3:CRS84" } },
"features": [
{ "type": "Feature", "properties": { "id": 1 }, "geometry": { "type": "MultiPolygon", "coordinates": [ [ [ [ -72.348460352833627, -42.086736408904954 ], [ -72.342138985986438, -42.047647056034258 ], [ -72.32409501337105, -42.012400038587081 ], [ -72.296079771969687, -41.984416410589816 ], [ -72.260812404034311, -41.966412245916693 ], [ -72.221715938797288, -41.960135017815333 ], [ -71.023636205746769, -41.956792353990892 ], [ -70.984464563160614, -41.962864391465189 ], [ -70.949068527822007, -41.980708379368551 ], [ -70.920890957627748, -42.008588690699931 ], [ -70.902672593712481, -42.043793497733027 ], [ -70.896185477421284, -42.082898542729957 ], [ -70.887177359127676, -43.235498725774988 ], [ -70.893150994700818, -43.275011571743747 ], [ -70.911098231691071, -43.310716557431014 ], [ -70.939244890299804, -43.339084055164776 ], [ -70.974808523672962, -43.357309786969324 ], [ -71.014273477566348, -43.363592042352927 ], [ -72.225865388057258, -43.363592042352927 ], [ -72.265236183166522, -43.357340503213891 ], [ -72.300733995324407, -43.339200862061254 ], [ -72.328866834569382, -43.310957551257459 ], [ -72.346867217885972, -43.275388921123614 ], [ -72.352964411980409, -43.235993928125545 ], [ -72.348460352833627, -42.086736408904954 ] ] ] ] } }
]
}
