{
"type": "FeatureCollection",
"name": "muestras_merged4326",
"crs": { "type": "name", "properties": { "name": "urn:ogc:def:crs:OGC:1.3:CRS84" } },
"features": [
{ "type": "Feature", "properties": { "fid": 1, "nombre": "forestacion3" }, "geometry": { "type": "MultiPolygon", "coordinates": [ [ [ [ -59.006123613056893, -33.910663523349918 ], [ -59.000442038923573, -33.915934343077154 ], [ -58.988045877249895, -33.909006980073023 ], [ -58.99476046486707, -33.901477237610216 ], [ -59.006123613056893, -33.910663523349918 ] ] ] ] } },
{ "type": "Feature", "properties": { "fid": 2, "nombre": "juncal4" }, "geometry": { "type": "MultiPolygon", "coordinates": [ [ [ [ -59.323880196004261, -33.657503803533309 ], [ -59.31842162969734, -33.664029044773081 ], [ -59.311689397918791, -33.660050239139061 ], [ -59.317329916435952, -33.65400245457537 ], [ -59.323880196004261, -33.657503803533309 ] ] ] ] } },
{ "type": "Feature", "properties": { "fid": 3, "nombre": "laguna5" }, "geometry": { "type": "MultiPolygon", "coordinates": [ [ [ [ -60.10158513770935, -32.694611746660946 ], [ -60.092975602615887, -32.694611746660954 ], [ -60.092899412039841, -32.701342722179923 ], [ -60.10158513770935, -32.701342722179923 ], [ -60.10158513770935, -32.694611746660946 ] ] ] ] } }
]
}
