{
"type": "FeatureCollection",
"name": "bounds_esr",
"crs": { "type": "name", "properties": { "name": "urn:ogc:def:crs:OGC:1.3:CRS84" } },
"features": [
{ "type": "Feature", "properties": { "id": 1 }, "geometry": { "type": "MultiPolygon", "coordinates": [ [ [ [ -64.53236656202391, -31.430301444517564 ], [ -64.417458690638043, -31.429857787224979 ], [ -64.41797863575745, -31.292667214153951 ], [ -64.533406452262682, -31.293111519372111 ], [ -64.53236656202391, -31.430301444517564 ] ] ] ] } }
]
}
